ONEWEB-0228             
1 48780U 21045P   23248.55620826 -.00000055  00000+0 -18075-3 0  9997
2 48780  87.8950 101.4238 0001820  88.2504 271.8834 13.15547202110794
